NORAD_CAT_ID,OBJECT_NAME,OBJECT_TYPE,EPOCH,MEAN_MOTION,ECCENTRICITY,INCLINATION,RA_OF_ASC_NODE,ARG_OF_PERICENTER,MEAN_ANOMALY,BSTAR,MEAN_MOTION_DOT,MEAN_MOTION_DDOT,TLE_LINE0,TLE_LINE1,TLE_LINE2,SEMIMAJOR_AXIS,PERIOD,APOGEE,PERIGEE,DECAYED
54790.0,STARLINK-5445,PAYLOAD,2023-03-06 14:00:01,15.15047365,0.0001287,53.2091,283.0556,101.0556,265.2544,-0.052351,-0.00917048,0.0,0 STARLINK-5445,1 54790U 22175AJ  23065.58334491 -.00917048  00000-0 -52351-1 0  9993,2 54790  53.2091 283.0556 0001287 101.0556 265.2544 15.15047365 12044,6898.972,95.047,521.725,519.949,0.0
54790.0,STARLINK-5445,PAYLOAD,2023-03-06 22:00:00,15.14383276,0.0001304,53.2089,281.5471,88.4699,296.5006,-0.052589,-0.00904929,0.0,0 STARLINK-5445,1 54790U 22175AJ  23065.91667824 -.00904929  00000-0 -52589-1 0  9996,2 54790  53.2089 281.5471 0001304  88.4699 296.5006 15.14383276  1306,6900.989,95.088,523.753,521.954,0.0
54790.0,STARLINK-5445,PAYLOAD,2023-03-07 14:00:01,15.13098142,0.0001348,53.2085,278.5292,95.8462,324.0782,-0.055721,-0.00923171,0.0,0 STARLINK-5445,1 54790U 22175AJ  23066.58334491 -.00923171  00000-0 -55721-1 0  9992,2 54790  53.2085 278.5292 0001348  95.8462 324.0782 15.13098142 12198,6904.895,95.169,527.691,525.83,0.0
54790.0,STARLINK-5445,PAYLOAD,2023-03-07 22:00:00,15.12428833,0.0001369,53.2084,277.0252,84.9414,351.2981,-0.055342,-0.00901475,0.0,0 STARLINK-5445,1 54790U 22175AJ  23066.91667824 -.00901475  00000-0 -55342-1 0  9990,2 54790  53.2084 277.0252 0001369  84.9414 351.2981 15.12428833  1303,6906.932,95.211,529.743,527.852,0.0
54790.0,STARLINK-5445,PAYLOAD,2023-03-08 14:00:01,15.11150304,0.0001426,53.2084,274.0162,93.3779,13.1197,-0.059444,-0.00931842,0.0,0 STARLINK-5445,1 54790U 22175AJ  23067.58334491 -.00931842  00000-0 -59444-1 0  9993,2 54790  53.2084 274.0162 0001426  93.3779  13.1197 15.11150304 12345,6910.828,95.292,533.678,531.707,0.0
54790.0,STARLINK-5445,PAYLOAD,2023-03-08 22:00:00,15.10473916,0.0001504,53.2085,272.5167,82.6224,37.8455,-0.058141,-0.00897113,0.0,0 STARLINK-5445,1 54790U 22175AJ  23067.91667824 -.00897113  00000-0 -58141-1 0  9994,2 54790  53.2085 272.5167 0001504  82.6224  37.8455 15.10473916  1307,6912.891,95.334,535.795,533.716,0.0
54790.0,STARLINK-5445,PAYLOAD,2023-03-09 22:00:00,15.08821402,0.0001156,53.21,268.0216,82.9279,74.8289,0.00096651,0.0001512,0.0,0 STARLINK-5445,1 54790U 22175AJ  23068.91667824  .00015120  00000-0  96651-3 0  9993,2 54790  53.2100 268.0216 0001156  82.9279  74.8289 15.08821402 12544,6917.937,95.439,540.602,539.003,0.0
54790.0,STARLINK-5445,PAYLOAD,2023-03-10 00:00:00,15.08810898,0.0001127,53.2102,267.6476,81.2219,169.4335,0.0026336,0.00041841,0.0,0 STARLINK-5445,1 54790U 22175AJ  23069.00001157  .00041841  00000-0  26336-2 0  9996,2 54790  53.2102 267.6476 0001127  81.2219 169.4335 15.08810898  1305,6917.969,95.439,540.614,539.055,0.0
54790.0,STARLINK-5445,PAYLOAD,2023-03-10 22:00:00,15.08832687,9.39e-05,53.2136,263.5314,68.8707,123.6384,-0.0015052,-0.00024158,0.0,0 STARLINK-5445,1 54790U 22175AJ  23069.91667824 -.00024158  00000-0 -15052-2 0  9992,2 54790  53.2136 263.5314 0000939  68.8707 123.6384 15.08832687 12703,6917.903,95.438,540.417,539.118,0.0
54790.0,STARLINK-5445,PAYLOAD,2023-03-11 14:00:01,15.08849569,9.11e-05,53.2147,260.5368,79.9616,135.7618,0.00096582,0.0001512,0.0,0 STARLINK-5445,1 54790U 22175AJ  23070.58335648  .00015120  00000-0  96582-3 0  9998,2 54790  53.2147 260.5368 0000911  79.9616 135.7618 15.08849569 12805,6917.851,95.437,540.346,539.086,0.0
54790.0,STARLINK-5445,PAYLOAD,2023-03-11 22:00:00,15.08840011,0.0001047,53.2147,259.0418,67.8183,159.4596,-0.0017073,-0.00027356,0.0,0 STARLINK-5445,1 54790U 22175AJ  23070.91667824 -.00027356  00000-0 -17073-2 0  9992,2 54790  53.2147 259.0418 0001047  67.8183 159.4596 15.08840011  1304,6917.88,95.438,540.47,539.021,0.0
54790.0,STARLINK-5445,PAYLOAD,2023-03-12 06:00:00,15.08817929,9.81e-05,53.2148,257.5439,80.4445,158.4149,0.00038658,5.866e-05,0.0,0 STARLINK-5445,1 54790U 22175AJ  23071.25001157  .00005866  00000-0  38658-3 0  9994,2 54790  53.2148 257.5439 0000981  80.4445 158.4149 15.08817929 12902,6917.948,95.439,540.492,539.134,0.0
54790.0,STARLINK-5445,PAYLOAD,2023-03-12 14:00:01,15.08836862,0.0001025,53.2152,256.0475,85.6581,164.7673,-0.00082164,-0.00013339,0.0,0 STARLINK-5445,1 54790U 22175AJ  23071.58334491 -.00013339  00000-0 -82164-3 0  9997,2 54790  53.2152 256.0475 0001025  85.6581 164.7673 15.08836862  1300,6917.89,95.438,540.464,539.046,0.0
54790.0,STARLINK-5445,PAYLOAD,2023-03-12 22:26:00,15.08842117,0.0001128,53.2155,254.4714,70.5403,289.5711,-3.5869e-05,-8.59e-06,0.0,0 STARLINK-5445,1 54790U 22175AJ  23071.93472281 -.00000859  00000-0 -35869-4 0  9990,2 54790  53.2155 254.4714 0001128  70.5403 289.5711 15.08842117 13000,6917.874,95.437,540.519,538.959,0.0
54790.0,STARLINK-5445,PAYLOAD,2023-03-13 00:00:00,15.08811656,9.6e-05,53.2149,254.1784,78.0301,276.9089,0.0024279,0.00038533,0.0,0 STARLINK-5445,1 54790U 22175AJ  23072.00001157  .00038533  00000-0  24279-2 0  9998,2 54790  53.2149 254.1784 0000960  78.0301 276.9089 15.08811656  1302,6917.967,95.439,540.496,539.168,0.0
54790.0,STARLINK-5445,PAYLOAD,2023-03-13 12:44:29,15.08824724,0.0001013,53.2154,251.7947,82.9557,277.1551,9.1008e-06,-1.43e-06,0.0,0 STARLINK-5445,1 54790U 22175AJ  23072.53089443 -.00000143  00000-0  91008-5 0  9994,2 54790  53.2154 251.7947 0001013  82.9557 277.1551 15.08824724 13095,6917.927,95.439,540.493,539.091,0.0
54790.0,STARLINK-5445,PAYLOAD,2023-03-14 12:35:15,15.08840771,0.0001074,53.2153,247.3333,84.7352,275.3762,8.3472e-05,1.041e-05,0.0,0 STARLINK-5445,1 54790U 22175AJ  23073.52448392  .00001041  00000-0  83472-4 0  9998,2 54790  53.2153 247.3333 0001074  84.7352 275.3762 15.08840771 13245,6917.878,95.438,540.486,539.0,0.0
54790.0,STARLINK-5445,PAYLOAD,2023-03-14 20:32:10,15.0885294,0.0001263,53.2139,245.8445,102.4909,257.6224,0.00014047,1.949e-05,0.0,0 STARLINK-5445,1 54790U 22175AJ  23073.85567211  .00001949  00000-0  14047-3 0  9994,2 54790  53.2139 245.8445 0001263 102.4909 257.6224 15.08852940 13294,6917.841,95.437,540.58,538.832,0.0
54790.0,STARLINK-5445,PAYLOAD,2023-03-15 04:29:06,15.08844817,0.000212,53.2154,244.3595,82.0925,278.0308,1.0443e-05,-1.22e-06,0.0,0 STARLINK-5445,1 54790U 22175AJ  23074.18688332 -.00000122  00000-0  10443-4 0  9999,2 54790  53.2154 244.3595 0002120  82.0925 278.0308 15.08844817 13345,6917.866,95.437,541.197,538.264,0.0
54790.0,STARLINK-5445,PAYLOAD,2023-03-15 20:22:57,15.08847108,0.0001445,53.2153,241.3852,86.1994,273.9163,8.0618e-05,9.96e-06,0.0,0 STARLINK-5445,1 54790U 22175AJ  23074.84927532  .00000996  00000-0  80618-4 0  9999,2 54790  53.2153 241.3852 0001445  86.1994 273.9163 15.08847108 15607,6917.859,95.437,540.723,538.724,0.0
54790.0,STARLINK-5445,PAYLOAD,2023-03-15 21:58:19,15.08860797,0.00011,53.2158,241.0882,117.2367,242.8737,0.00020868,3.037e-05,0.0,0 STARLINK-5445,1 54790U 22175AJ  23074.91550003  .00003037  00000-0  20868-3 0  9991,2 54790  53.2158 241.0882 0001100 117.2367 242.8737 15.08860797 13452,6917.817,95.436,540.443,538.921,0.0
54790.0,STARLINK-5445,PAYLOAD,2023-03-16 10:41:27,15.0883356,0.0001286,53.2165,238.709,93.8381,266.2758,-0.00025464,-4.337e-05,0.0,0 STARLINK-5445,1 54790U 22175AJ  23075.44545537 -.00004337  00000-0 -25464-3 0  9999,2 54790  53.2165 238.7090 0001286  93.8381 266.2758 15.08833560 13534,6917.9,95.438,540.655,538.875,0.0
54790.0,STARLINK-5445,PAYLOAD,2023-03-16 20:13:45,15.08835815,0.0001236,53.2159,236.925,94.8375,265.2758,-0.00020645,-3.572e-05,0.0,0 STARLINK-5445,1 54790U 22175AJ  23075.84289243 -.00003572  00000-0 -20645-3 0  9998,2 54790  53.2159 236.9250 0001236  94.8375 265.2758 15.08835815 15754,6917.893,95.438,540.613,538.903,0.0
54790.0,STARLINK-5445,PAYLOAD,2023-03-17 10:32:14,15.08834242,0.000128,53.2156,234.2488,88.109,272.0049,-8.1986e-05,-1.592e-05,0.0,0 STARLINK-5445,1 54790U 22175AJ  23076.43905101 -.00001592  00000-0 -81986-4 0  9998,2 54790  53.2156 234.2488 0001280  88.1090 272.0049 15.08834242 13686,6917.898,95.438,540.648,538.877,0.0
54790.0,STARLINK-5445,PAYLOAD,2023-03-17 20:04:32,15.08843811,0.0001295,53.2149,232.4651,89.4566,270.6575,-7.6937e-05,-1.512e-05,0.0,0 STARLINK-5445,1 54790U 22175AJ  23076.83648588 -.00001512  00000-0 -76937-4 0  9997,2 54790  53.2149 232.4651 0001295  89.4566 270.6575 15.08843811 13745,6917.869,95.437,540.63,538.838,0.0
54790.0,STARLINK-5445,PAYLOAD,2023-03-18 16:44:32,15.08846338,0.0001138,53.2161,228.5991,87.2485,272.8638,0.00018949,2.73e-05,0.0,0 STARLINK-5445,1 54790U 22175AJ  23077.69759588  .00002730  00000-0  18949-3 0  9994,2 54790  53.2161 228.5991 0001138  87.2485 272.8638 15.08846338 13879,6917.861,95.437,540.513,538.939,0.0
54790.0,STARLINK-5445,PAYLOAD,2023-03-19 13:24:35,15.08827057,0.0001426,53.2167,224.7349,93.3437,266.7718,-8.7899e-05,-1.686e-05,0.0,0 STARLINK-5445,1 54790U 22175AJ  23078.55874001 -.00001686  00000-0 -87899-4 0  9990,2 54790  53.2167 224.7349 0001426  93.3437 266.7718 15.08827057 16168,6917.92,95.438,540.771,538.798,0.0
54790.0,STARLINK-5445,PAYLOAD,2023-03-19 18:10:43,15.08841787,0.0001113,53.217,223.8423,92.5607,267.5512,-3.4712e-06,-3.43e-06,0.0,0 STARLINK-5445,1 54790U 22175AJ  23078.75744859 -.00000343  00000-0 -34712-5 0  9995,2 54790  53.2170 223.8423 0001113  92.5607 267.5512 15.08841787 14039,6917.875,95.437,540.51,538.97,0.0
54790.0,STARLINK-5445,PAYLOAD,2023-03-19 19:46:06,15.08844272,0.0001134,53.2175,223.5449,93.8242,266.288,1.3435e-05,-7.4e-07,0.0,0 STARLINK-5445,1 54790U 22175AJ  23078.82368629 -.00000074  00000-0  13435-4 0  9998,2 54790  53.2175 223.5449 0001134  93.8242 266.2880 15.08844272 16208,6917.867,95.437,540.517,538.948,0.0
54790.0,STARLINK-5445,PAYLOAD,2023-03-20 13:15:21,15.08842447,0.0001226,53.2186,220.2737,88.7459,271.3674,-6.6259e-05,-1.342e-05,0.0,0 STARLINK-5445,1 54790U 22175AJ  23079.55233014 -.00001342  00000-0 -66259-4 0  9990,2 54790  53.2186 220.2737 0001226  88.7459 271.3674 15.08842447 16311,6917.873,95.437,540.586,538.89,0.0
